ONEWEB-0665             
1 55825U 23029AF  24204.12687872 -.00000007  00000+0 -53012-4 0  9997
2 55825  87.8938  67.9904 0001900  70.6598 289.4737 13.14503657 68098
ONEWEB-0666             
1 55826U 23029AG  24205.10142872  .00000074  00000+0  14961-3 0  9994
2 55826  87.9188  52.5580 0001957  98.1333 262.0022 13.20772903 70211
ONEWEB-0667             
1 55827U 23029AH  24205.09512027  .00000124  00000+0  27240-3 0  9996
2 55827  87.9185  52.4928 0001987  76.6094 283.5260 13.20770747 70207
ONEWEB-0669             
1 55828U 23029AJ  24204.93887534 -.00000040  00000+0 -13125-3 0  9993
2 55828  87.9187  52.5615 0002464  94.1338 266.0077 13.20769286 69500
ONEWEB-0670             
1 55829U 23029AK  24204.63750166 -.00000066  00000+0 -21386-3 0  9997
2 55829  87.8941  67.8951 0002212  72.4289 287.7083 13.14501441 68185
ONEWEB-0671             
1 55830U 23029AL  24205.18820232  .00000047  00000+0  84493-4 0  9998
2 55830  87.9131  83.0700 0002009  73.2417 286.8936 13.19727775 68055
ONEWEB-0672             
1 55831U 23029AM  24204.55534789 -.00000008  00000+0 -52384-4 0  9991
2 55831  87.9187  52.6219 0001823  94.9592 265.1749 13.20771175 69453
ONEWEB-0673             
1 55832U 23029AN  24204.63380353 -.00000031  00000+0 -11074-3 0  9993
2 55832  87.9130  83.1476 0001933  71.0850 289.0492 13.19725956 68005
